C/2022 F1 (ATLAS),e,57.9742,350.6526,278.2827,7084,0.0000017,0.99915658,0.0000,08/05.2448/2022,2000,g  7.0,4.0
# From MPEC 2022-QD9
C/2022 F2 (NEOWISE),e,97.2940,58.6966,200.6234,23.80646,0.0084852,0.93340993,4.0697,07/16.0/2023,2000,g 14.5,4.0
# From MPEC 2023-J95
C/2022 H1 (PANSTARRS),e,49.8394,6.3460,246.1586,768.6481,0.0000463,0.98998674,0.0000,01/17.3021/2024,2000,g  6.0,4.0
# From MPEC 2022-VC5
C/2022 J1 (Maury-Attard),e,105.9417,280.7386,305.6678,47.62046,0.0029993,0.96631000,1.5355,07/16.0/2023,2000,g 14.9,4.0
# From MPEC 2023-M14
C/2022 J2 (Bok),e,149.1094,252.5808,133.1057,94.03025,0.0010809,0.98056264,0.0000,10/27.1307/2022,2000,g  9.0,4.0
# From MPEC 2023-N16
C/2022 JK5 (PANSTARRS),e,16.8308,59.6518,247.1635,43.20889,0.0034701,0.93781446,0.2713,07/16.0/2023,2000,g 11.0,4.0
# From MPEC 2022-ST7
C/2022 K1 (Leonard),h,12/17.4973/2021,41.9633,136.2868,142.6926,1.002566,3.988632,2000,11.0,4.0
# From MPEC 2023-CD7
C/2022 L1 (Catalina),e,123.4642,300.0302,59.8532,534.8328,0.0000797,0.99702447,0.0000,09/28.2449/2022,2000,g 15.8,4.0
# From MPEC 2023-N16
C/2022 L2 (ATLAS),h,03/12.3077/2024,129.3141,39.2419,199.9354,1.001435,2.692453,2000,6.5,4.0
# From MPEC 2023-HD1
P/2022 L3 (ATLAS),e,21.5431,29.8055,10.3313,6.500635,0.0594662,0.62773438,15.4045,07/16.0/2023,2000,g 12.7,4.0
# From MPEC 2022-N37
C/2022 L4 (PANSTARRS),e,141.2384,66.0559,125.3329,280.8630,0.0002094,0.98926553,0.0000,12/08.8184/2021,2000,g 14.0,4.0
# From MPEC 2023-FK0
C/2022 N1 (Attard-Maury),e,164.7394,301.8659,41.0726,37.05354,0.0043698,0.96001607,1.3500,07/16.0/2023,2000,g 16.9,4.0
# From MPEC 2023-N01
C/2022 N2 (PANSTARRS),h,07/31.5841/2025,5.5016,319.7411,75.3356,1.003787,3.827682,2000,6.0,4.0
# From MPEC 2023-D72
C/2022 O1 (ATLAS),h,02/15.8031/2022,71.0422,49.9156,268.9072,1.004051,7.430937,2000,6.0,4.0
# From MPEC 2023-HD1
P/2022 O2 (PANSTARRS),e,9.4245,330.4883,48.6275,6.306800,0.0622287,0.72144825,11.8198,07/16.0/2023,2000,g 16.2,4.0
# From MPEC 2023-N01
C/2022 P1 (NEOWISE),e,154.6067,205.0824,249.9416,18.44807,0.0124388,0.91352623,2.8548,07/16.0/2023,2000,g 13.0,4.0
# From MPEC 2023-G31
P/2022 P2 (ZTF),e,12.4410,291.2241,137.6229,4.486348,0.1037205,0.55809257,38.3916,07/16.0/2023,2000,g 12.5,4.0
# From MPEC 2023-HD1
C/2022 P3 (ZTF),e,59.5166,72.2297,0.1094,245.8194,0.0002557,0.98957918,0.0000,07/27.3791/2022,2000,g  9.0,4.0
# From MPEC 2023-N01
C/2022 Q2 (ATLAS),e,151.4859,352.9445,44.0669,32.74020,0.0052612,0.94978055,0.8702,07/16.0/2023,2000,g 13.0,4.0
# From MPEC 2023-E68
C/2022 QE78 (ATLAS),h,09/10.2579/2025,36.5482,119.9451,0.3450,1.003090,5.482313,2000,5.0,4.0
# From MPEC 2022-WD2
P/2022 R1 (PANSTARRS),e,7.3972,176.1517,222.2597,7.236598,0.0506294,0.50632893,355.6498,07/16.0/2023,2000,g 11.5,4.0
# From MPEC 2022-Y15
C/2022 R2 (ATLAS),e,52.8997,60.4055,78.3680,418.8708,0.0001150,0.99849015,0.0000,10/25.2248/2022,2000,g 17.0,4.0
# From MPEC 2023-D41
C/2022 R3 (Leonard),h,03/05.1784/2023,43.0828,8.2384,72.8512,1.000709,5.129075,2000,9.0,4.0
# From MPEC 2022-X67
P/2022 R4 (PANSTARRS),e,21.0216,176.6243,197.4360,3.836071,0.1311819,0.49013959,48.6215,07/16.0/2023,2000,g 16.5,4.0
# From MPEC 2022-WQ9
P/2022 R5 (PANSTARRS),e,15.2946,115.0506,240.5664,3.068785,0.1833388,0.19538730,76.0212,07/16.0/2023,2000,g 16.0,4.0
# From MPEC 2023-G31
C/2022 R6 (PANSTARRS),h,08/25.6282/2025,57.0216,150.7648,319.8532,1.003634,6.568274,2000,5.0,4.0
# From MPEC 2023-HD1
P/2022 S1 (PANSTARRS),e,34.5819,136.0910,262.7660,6.407571,0.0607665,0.50812558,20.1026,07/16.0/2023,2000,g 15.1,4.0
# From MPEC 2022-VC5
C/2022 S3 (PANSTARRS),h,01/21.6855/2023,78.5504,157.3227,267.9650,1.000376,0.838393,2000,17.0,4.0
# From MPEC 2023-HD1
C/2022 S4 (Lemmon),h,07/18.0036/2024,101.1851,220.1670,268.3767,1.000839,2.765336,2000,12.3,4.0
# From MPEC 2023-HD1
C/2022 S5 (PANSTARRS),e,136.5328,214.8592,232.7832,20.40771,0.0106909,0.89323091,2.4645,07/16.0/2023,2000,g 16.3,4.0
# From MPEC 2023-M14
C/2022 T1 (Lemmon),e,22.5432,236.9205,324.3216,7600,0.0000015,0.99954671,0.0000,02/17.5505/2024,2000,g 12.0,4.0
# From MPEC 2023-D41
C/2022 U1 (Leonard),e,128.1401,72.5133,78.5406,17580,0.0000004,0.99976096,0.0000,03/25.6257/2024,2000,g  8.5,4.0
# From MPEC 2023-M14
C/2022 U2 (ATLAS),e,48.2479,304.4739,147.9136,96.05683,0.0010469,0.98617435,0.0000,01/14.2246/2023,2000,g 14.6,4.0
# From MPEC 2023-M14
C/2022 U3 (Bok),h,07/27.7972/2024,33.6270,272.7988,188.9956,1.003248,4.828245,2000,11.5,4.0
# From MPEC 2023-N16
C/2022 U4 (Bok),e,52.0348,132.9268,89.0080,3507,0.0000047,0.99917365,0.0000,08/03.6777/2023,2000,g 10.5,4.0
# From MPEC 2023-N01
C/2022 V2 (Lemmon),e,98.9067,332.8698,168.9511,36.82635,0.0044103,0.94396532,359.5196,07/16.0/2023,2000,g 12.0,4.0
# From MPEC 2023-CD7
P/2022 W1 (Rankin),e,13.4660,38.8159,17.8037,6.967173,0.0535944,0.51657927,16.2499,07/16.0/2023,2000,g 12.5,4.0
# From MPEC 2023-M14
C/2022 W2 (ATLAS),e,63.5305,320.4508,123.2621,337.0293,0.0001593,0.99073426,0.0000,03/08.7022/2023,2000,g 13.3,4.0
# From MPEC 2023-N16
C/2022 W3 (Leonard),e,103.5591,132.2699,116.5196,285.7595,0.0002040,0.99510857,0.0000,06/22.7753/2023,2000,g 13.0,4.0
# From MPEC 2023-M14
C/2022 Y1 (Hogan),e,18.8572,285.9122,174.7515,12.55916,0.0221444,0.76448982,5.1094,07/16.0/2023,2000,g  9.0,4.0
# From MPEC 2023-M14
C/2022 Y2 (Lemmon),e,165.9070,216.3497,105.5638,19.65546,0.0113104,0.87051852,1.3044,07/16.0/2023,2000,g 15.6,4.0
# From MPEC 2023-KD6
C/2023 A1 (Leonard),e,94.7415,318.3079,159.2502,228.5601,0.0002852,0.99197267,0.0000,03/18.7269/2023,2000,g 14.5,4.0
# From MPEC 2023-J95
C/2023 A2 (SWAN),e,94.7091,94.4693,142.5645,464.8243,0.0000983,0.99796211,0.0000,01/20.3787/2023,2000,g 13.5,4.0
# From MPEC 2023-N16
C/2023 A3 (Tsuchinshan-ATLAS),h,09/27.6976/2024,139.1187,21.5571,308.4857,1.000167,0.391366,2000,5.0,4.0
# From MPEC 2023-KD6
P/2023 B1 (PANSTARRS),e,14.5882,78.5784,81.3545,7.052078,0.0526294,0.12921714,4.1265,07/16.0/2023,2000,g  5.5,4.0
# From MPEC 2023-N16
C/2023 B2 (ATLAS),e,40.7712,218.1206,317.3974,605.6830,0.0000661,0.99712209,0.0000,03/10.4931/2023,2000,g 14.5,4.0
# From MPEC 2023-F81
P/2023 B3 (PANSTARRS),e,9.1623,154.0063,239.9486,4.544796,0.1017261,0.12325969,106.2917,07/16.0/2023,2000,g 10.5,4.0
# From MPEC 2023-N16
C/2023 C2 (ATLAS),e,48.3168,301.0257,357.4501,3560,0.0000046,0.99933473,0.0000,11/16.8072/2024,2000,g  7.0,4.0
# From MPEC 2023-N16
C/2023 E1 (ATLAS),e,38.3138,164.5741,105.8951,19.34286,0.0115857,0.94692559,0.1725,07/16.0/2023,2000,g 15.5,4.0
# From MPEC 2023-N01
C/2023 F1 (PANSTARRS),e,131.7524,25.2476,216.6545,262.0061,0.0002324,0.99348054,0.0000,06/28.3521/2023,2000,g 16.0,4.0
# From MPEC 2023-N01
C/2023 F2 (SOHO),h,03/21.1655/2023,72.4384,71.4957,57.6889,1.011306,0.034233,2000,9.0,4.0
# From MPEC 2023-M14
C/2023 H1 (PANSTARRS),e,21.7771,292.6508,333.8407,1658,0.0000146,0.99732119,0.0000,11/28.4060/2024,2000,g 12.6,4.0
# From MPEC 2023-N01
C/2023 H2 (Lemmon),e,113.7578,217.0473,150.6388,248.6477,0.0002514,0.99640190,0.0000,10/29.1990/2023,2000,g 14.0,4.0
# From MPEC 2023-M14
C/2023 H3 (PANSTARRS),e,2.4896,55.0995,193.3554,13.64021,0.0195647,0.61639538,355.7298,07/16.0/2023,2000,g 13.6,4.0
# From MPEC 2023-N01
A/2023 H4,e,76.6186,230.8131,64.8957,141.4336,0.0005860,0.98501551,0.0000,08/08.7997/2023,2000,g 18.0,22.0
# From MPEC 2023-N01
C/2023 H5 (Lemmon),h,06/30.1321/2025,97.8844,159.4801,60.0804,1.000501,4.312754,2000,7.0,4.0
# From MPEC 2023-N16
C/2023 K1 (ATLAS),e,137.9976,223.7120,337.4948,540.9526,0.0000783,0.99623019,0.0000,09/07.7936/2023,2000,g 13.0,4.0
# From MPEC 2023-N01
P/2023 M1 (PANSTARRS),e,12.2882,216.8629,79.6813,6.852755,0.0549422,0.58760033,351.6838,07/16.0/2023,2000,g 13.5,4.0
# From MPEC 2023-N15
P/2023 M2 (PANSTARRS),e,19.6776,83.0582,242.2372,5.532705,0.0757352,0.36717944,359.7072,07/16.0/2023,2000,g 12.5,4.0
# From  98, 1083
1P/Halley,e,162.1571,59.5228,112.4332,17.86748,0.0130500,0.96693007,178.0975,07/16.0/2023,2000,g  4.0,6.0
# From MPEC 2023-N01
2P/Encke,e,11.3375,334.0257,187.2806,2.218897,0.2981937,0.84695675,330.6199,07/16.0/2023,2000,g 11.5,6.0
# From MPEC 2023-FK0
4P/Faye,e,8.0092,192.9237,207.0641,3.827281,0.1316341,0.57683832,88.8534,07/16.0/2023,2000,g  8.0,6.0
# From MPEC 2022-WD2
6P/d'Arrest,e,19.5088,138.9424,178.0914,3.497115,0.1507090,0.61235642,100.4358,07/16.0/2023,2000,g  7.5,16.0
# From MPEC 2023-A50
7P/Pons-Winnecke,e,22.3819,93.3150,172.5237,3.408719,0.1566092,0.63867247,122.1705,07/16.0/2023,2000,g 10.0,6.0
# From MPEC 2022-HC2
8P/Tuttle,e,54.9454,270.1908,207.4672,5.703272,0.0723632,0.82024449,49.7300,07/16.0/2023,2000,g  8.0,8.0
# From MPEC 2023-J29
9P/Tempel,e,10.5065,68.4463,179.8971,3.157192,0.1756923,0.51031105,87.3353,07/16.0/2023,2000,g  5.5,10.0
# From MPEC 2023-HD1
10P/Tempel,e,12.0337,117.8145,195.5280,3.061932,0.1839546,0.53795412,155.2686,07/16.0/2023,2000,g 13.2,4.0
# From MPEC 2023-A50
11P/Tempel-Swift-LINEAR,e,14.4313,238.8683,168.0028,3.283807,0.1656295,0.57752560,159.2108,07/16.0/2023,2000,g 17.0,4.0
# From MPEC 2023-N16
12P/Pons-Brooks,e,74.1901,255.8522,198.9862,17.18203,0.0138386,0.95454817,356.1232,07/16.0/2023,2000,g  5.0,6.0
# From  27, 604
13P/Olbers,e,44.6353,85.8915,64.3980,16.88731,0.0142025,0.93041567,355.0182,07/16.0/2023,2000,g  5.0,6.0
# From MPEC 2021-F20
14P/Wolf,e,27.9280,202.0404,159.1313,4.257752,0.1121847,0.35713287,229.8405,07/16.0/2023,2000,g  5.5,12.0
# From MPEC 2022-ED3
15P/Finlay,e,6.7973,13.7130,347.8810,3.508855,0.1499533,0.71691682,109.8406,07/16.0/2023,2000,g 12.0,4.0
# From MPEC 2022-X67
16P/Brooks,e,3.0111,138.8648,245.2792,3.659641,0.1407818,0.48638062,115.2296,07/16.0/2023,2000,g  7.5,10.0
# From MPEC 2023-J29
17P/Holmes,e,19.0246,326.6290,24.5852,3.638650,0.1420017,0.42731976,124.4076,07/16.0/2023,2000,g 10.0,6.0
# From MPEC 2023-KD6
19P/Borrelly,e,29.3086,74.2264,351.9509,3.606850,0.1438838,0.63784359,76.1282,07/16.0/2023,2000,g  4.5,10.0
# From MPEC 2021-F20
21P/Giacobini-Zinner,e,32.0584,195.3450,172.9006,3.494393,0.1508852,0.71124425,266.6814,07/16.0/2023,2000,g 11.4,4.0
# From MPEC 2023-BF4
